GLOBALSTAR M084         
1 38040U 11080A   25360.98663838 -.00000091  00000+0  70563-4 0  9997
2 38040  51.9981 181.5231 0001388  90.9706  74.3711 12.62266892647017
GLOBALSTAR M080         
1 38041U 11080B   25360.70160898 -.00000098  00000+0  30757-4 0  9994
2 38041  52.0028 184.0494 0000687 105.0555 334.3175 12.62265170647103
GLOBALSTAR M082         
1 38042U 11080C   25361.13306170 -.00000090  00000+0  74878-4 0  9992
2 38042  52.0056 138.2175 0000707 119.6776  50.9272 12.62266401647861
GLOBALSTAR M092         
1 38043U 11080D   25361.02103125 -.00000094  00000+0  54047-4 0  9996
2 38043  52.0065 228.9485 0001001  76.2278  64.7319 12.62268786646307
GLOBALSTAR M090         
1 38044U 11080E   25360.41306368 -.00000095  00000+0  51029-4 0  9991
2 38044  52.0104 134.3098 0000841 100.5256 275.5719 12.62265522647896
GLOBALSTAR M086         
1 38045U 11080F   25361.10468840 -.00000087  00000+0  92784-4 0  9997
2 38045  51.9885 132.4150 0001502  59.7932 111.2062 12.62281463647923
GLOBALSTAR M097         
1 39072U 13005A   25361.17454488 -.00000112  00000+0 -43208-4 0  9994
2 39072  52.0061  46.9569 0000334  96.0966 263.9939 12.62267571595180
GLOBALSTAR M093         
1 39073U 13005B   25361.14842325 -.00000103  00000+0  38385-5 0  9993
2 39073  52.0120  40.3189 0000197  55.5010 304.5876 12.62271227595130
